[{"OBJECT_NAME":"BUFENG 1B","OBJECT_ID":"2019-032B","EPOCH":"2026-03-09T19:57:27.457920","MEAN_MOTION":15.25619535,"ECCENTRICITY":0.00242037,"INCLINATION":44.9701,"RA_OF_ASC_NODE":192.0248,"ARG_OF_PERICENTER":123.8847,"MEAN_ANOMALY":236.4342,"EPHEMERIS_TYPE":0,"CLASSIFICATION_TYPE":"U","NORAD_CAT_ID":44311,"ELEMENT_SET_NO":999,"REV_AT_EPOCH":37256,"BSTAR":0.00059375374,"MEAN_MOTION_DOT":0.00015236,"MEAN_MOTION_DDOT":0},{"OBJECT_NAME":"TRANSPORTER-15 OBJECT F","OBJECT_ID":"2025-276F","EPOCH":"2026-03-09T17:57:42.210144","MEAN_MOTION":15.19380664,"ECCENTRICITY":0.00054716,"INCLINATION":97.4283,"RA_OF_ASC_NODE":144.0186,"ARG_OF_PERICENTER":0.0521,"MEAN_ANOMALY":0.0713,"EPHEMERIS_TYPE":0,"CLASSIFICATION_TYPE":"U","NORAD_CAT_ID":66671,"ELEMENT_SET_NO":999,"REV_AT_EPOCH":1532,"BSTAR":0.00065501978,"MEAN_MOTION_DOT":0.0001381,"MEAN_MOTION_DDOT":0}]
